CCSDS_OMM_VERS = 2.0
CREATION_DATE  = 
ORIGINATOR     = 

OBJECT_NAME    = UNKNOWN
OBJECT_ID      = 
CENTER_NAME    = EARTH
REF_FRAME      = TEME
TIME_SYSTEM    = UTC
MEAN_ELEMENT_THEORY = SGP/SGP4

EPOCH          = 2026-03-25T11:43:14.890656
MEAN_MOTION    = 11.29179881
ECCENTRICITY   = .0175129
INCLINATION    = 65.0952
RA_OF_ASC_NODE = 253.4585
ARG_OF_PERICENTER = 314.9407
MEAN_ANOMALY   = 65.8445

EPHEMERIS_TYPE = 0
CLASSIFICATION_TYPE = U
NORAD_CAT_ID   = 82829
ELEMENT_SET_NO = 999
REV_AT_EPOCH   = 49768
BSTAR          = .69735E-2
MEAN_MOTION_DOT = .21E-5
MEAN_MOTION_DDOT = 0

CCSDS_OMM_VERS = 2.0
CREATION_DATE  = 
ORIGINATOR     = 

OBJECT_NAME    = UNKNOWN
OBJECT_ID      = 
CENTER_NAME    = EARTH
REF_FRAME      = TEME
TIME_SYSTEM    = UTC
MEAN_ELEMENT_THEORY = SGP/SGP4

EPOCH          = 2026-03-30T22:53:30.091200
MEAN_MOTION    = 13.88258393
ECCENTRICITY   = .0131046
INCLINATION    = 82.6921
RA_OF_ASC_NODE = 339.7053
ARG_OF_PERICENTER = 335.3291
MEAN_ANOMALY   = 24.1638

EPHEMERIS_TYPE = 0
CLASSIFICATION_TYPE = U
NORAD_CAT_ID   = 82854
ELEMENT_SET_NO = 999
REV_AT_EPOCH   = 62281
BSTAR          = .17411E-2
MEAN_MOTION_DOT = .2243E-4
MEAN_MOTION_DDOT = 0

CCSDS_OMM_VERS = 2.0
CREATION_DATE  = 
ORIGINATOR     = 

OBJECT_NAME    = UNKNOWN
OBJECT_ID      = 
CENTER_NAME    = EARTH
REF_FRAME      = TEME
TIME_SYSTEM    = UTC
MEAN_ELEMENT_THEORY = SGP/SGP4

EPOCH          = 2026-04-02T04:56:52.661184
MEAN_MOTION    = 14.25334886
ECCENTRICITY   = .0039873
INCLINATION    = 99.9947
RA_OF_ASC_NODE = 6.5532
ARG_OF_PERICENTER = 338.4148
MEAN_ANOMALY   = 21.5345

EPHEMERIS_TYPE = 0
CLASSIFICATION_TYPE = U
NORAD_CAT_ID   = 82873
ELEMENT_SET_NO = 999
REV_AT_EPOCH   = 63696
BSTAR          = .20188E-2
MEAN_MOTION_DOT = .4743E-4
MEAN_MOTION_DDOT = 0

CCSDS_OMM_VERS = 2.0
CREATION_DATE  = 
ORIGINATOR     = 

OBJECT_NAME    = UNKNOWN
OBJECT_ID      = 
CENTER_NAME    = EARTH
REF_FRAME      = TEME
TIME_SYSTEM    = UTC
MEAN_ELEMENT_THEORY = SGP/SGP4

EPOCH          = 2026-04-01T04:47:31.461216
MEAN_MOTION    = 14.15376682
ECCENTRICITY   = .0376718
INCLINATION    = 98.6894
RA_OF_ASC_NODE = 76.9418
ARG_OF_PERICENTER = 329.1838
MEAN_ANOMALY   = 28.7696

EPHEMERIS_TYPE = 0
CLASSIFICATION_TYPE = U
NORAD_CAT_ID   = 82875
ELEMENT_SET_NO = 999
REV_AT_EPOCH   = 55995
BSTAR          = .35534E-3
MEAN_MOTION_DOT = .1326E-4
MEAN_MOTION_DDOT = 0

CCSDS_OMM_VERS = 2.0
CREATION_DATE  = 
ORIGINATOR     = 

OBJECT_NAME    = UNKNOWN
OBJECT_ID      = 
CENTER_NAME    = EARTH
REF_FRAME      = TEME
TIME_SYSTEM    = UTC
MEAN_ELEMENT_THEORY = SGP/SGP4

EPOCH          = 2026-04-02T07:12:32.080320
MEAN_MOTION    = 14.33753959
ECCENTRICITY   = .0024451
INCLINATION    = 98.9623
RA_OF_ASC_NODE = 216.1227
ARG_OF_PERICENTER = 89.7361
MEAN_ANOMALY   = 270.6624

EPHEMERIS_TYPE = 0
CLASSIFICATION_TYPE = U
NORAD_CAT_ID   = 82893
ELEMENT_SET_NO = 999
REV_AT_EPOCH   = 43980
BSTAR          = .40257E-2
MEAN_MOTION_DOT = .11192E-3
MEAN_MOTION_DDOT = 0

CCSDS_OMM_VERS = 2.0
CREATION_DATE  = 
ORIGINATOR     = 

OBJECT_NAME    = UNKNOWN
OBJECT_ID      = 
CENTER_NAME    = EARTH
REF_FRAME      = TEME
TIME_SYSTEM    = UTC
MEAN_ELEMENT_THEORY = SGP/SGP4

EPOCH          = 2026-04-01T21:28:58.148544
MEAN_MOTION    = 13.28492368
ECCENTRICITY   = .0769558
INCLINATION    = 65.8337
RA_OF_ASC_NODE = 280.2400
ARG_OF_PERICENTER = 218.8316
MEAN_ANOMALY   = 135.4969

EPHEMERIS_TYPE = 0
CLASSIFICATION_TYPE = U
NORAD_CAT_ID   = 82912
ELEMENT_SET_NO = 999
REV_AT_EPOCH   = 59395
BSTAR          = .11969E-2
MEAN_MOTION_DOT = .2847E-4
MEAN_MOTION_DDOT = 0

CCSDS_OMM_VERS = 2.0
CREATION_DATE  = 
ORIGINATOR     = 

OBJECT_NAME    = UNKNOWN
OBJECT_ID      = 
CENTER_NAME    = EARTH
REF_FRAME      = TEME
TIME_SYSTEM    = UTC
MEAN_ELEMENT_THEORY = SGP/SGP4

EPOCH          = 2026-04-02T09:09:39.623040
MEAN_MOTION    = 13.26653828
ECCENTRICITY   = .0400387
INCLINATION    = 99.8184
RA_OF_ASC_NODE = 246.2103
ARG_OF_PERICENTER = 108.8204
MEAN_ANOMALY   = 255.6780

EPHEMERIS_TYPE = 0
CLASSIFICATION_TYPE = U
NORAD_CAT_ID   = 82961
ELEMENT_SET_NO = 999
REV_AT_EPOCH   = 57036
BSTAR          = .18388E-1
MEAN_MOTION_DOT = .12585E-3
MEAN_MOTION_DDOT = 0

CCSDS_OMM_VERS = 2.0
CREATION_DATE  = 
ORIGINATOR     = 

OBJECT_NAME    = UNKNOWN
OBJECT_ID      = 
CENTER_NAME    = EARTH
REF_FRAME      = TEME
TIME_SYSTEM    = UTC
MEAN_ELEMENT_THEORY = SGP/SGP4

EPOCH          = 2026-03-13T16:17:22.427520
MEAN_MOTION    = 13.60232436
ECCENTRICITY   = .0003543
INCLINATION    = 100.1074
RA_OF_ASC_NODE = 160.1438
ARG_OF_PERICENTER = 183.0318
MEAN_ANOMALY   = 177.0799

EPHEMERIS_TYPE = 0
CLASSIFICATION_TYPE = U
NORAD_CAT_ID   = 82965
ELEMENT_SET_NO = 999
REV_AT_EPOCH   = 53681
BSTAR          = .15749E-2
MEAN_MOTION_DOT = .1132E-4
MEAN_MOTION_DDOT = 0

CCSDS_OMM_VERS = 2.0
CREATION_DATE  = 
ORIGINATOR     = 

OBJECT_NAME    = UNKNOWN
OBJECT_ID      = 
CENTER_NAME    = EARTH
REF_FRAME      = TEME
TIME_SYSTEM    = UTC
MEAN_ELEMENT_THEORY = SGP/SGP4

EPOCH          = 2026-04-02T19:42:28.275840
MEAN_MOTION    = 0.99117123
ECCENTRICITY   = .0122019
INCLINATION    = 5.9117
RA_OF_ASC_NODE = 289.6672
ARG_OF_PERICENTER = 254.3786
MEAN_ANOMALY   = 302.6914

EPHEMERIS_TYPE = 0
CLASSIFICATION_TYPE = U
NORAD_CAT_ID   = 83903
ELEMENT_SET_NO = 999
REV_AT_EPOCH   = 4476
BSTAR          = 0
MEAN_MOTION_DOT = -.215E-5
MEAN_MOTION_DDOT = 0

CCSDS_OMM_VERS = 2.0
CREATION_DATE  = 
ORIGINATOR     = 

OBJECT_NAME    = UNKNOWN
OBJECT_ID      = 
CENTER_NAME    = EARTH
REF_FRAME      = TEME
TIME_SYSTEM    = UTC
MEAN_ELEMENT_THEORY = SGP/SGP4

EPOCH          = 2026-04-03T09:05:37.088736
MEAN_MOTION    = 1.02663300
ECCENTRICITY   = .0222942
INCLINATION    = 5.5331
RA_OF_ASC_NODE = 296.8102
ARG_OF_PERICENTER = 275.9587
MEAN_ANOMALY   = 47.4734

EPHEMERIS_TYPE = 0
CLASSIFICATION_TYPE = U
NORAD_CAT_ID   = 83934
ELEMENT_SET_NO = 999
REV_AT_EPOCH   = 4642
BSTAR          = 0
MEAN_MOTION_DOT = -.261E-5
MEAN_MOTION_DDOT = 0

CCSDS_OMM_VERS = 2.0
CREATION_DATE  = 
ORIGINATOR     = 

OBJECT_NAME    = UNKNOWN
OBJECT_ID      = 
CENTER_NAME    = EARTH
REF_FRAME      = TEME
TIME_SYSTEM    = UTC
MEAN_ELEMENT_THEORY = SGP/SGP4

EPOCH          = 2026-03-30T09:08:42.703584
MEAN_MOTION    = 2.16230878
ECCENTRICITY   = .6167335
INCLINATION    = 22.3944
RA_OF_ASC_NODE = 155.4727
ARG_OF_PERICENTER = 98.4583
MEAN_ANOMALY   = 331.2963

EPHEMERIS_TYPE = 0
CLASSIFICATION_TYPE = U
NORAD_CAT_ID   = 84006
ELEMENT_SET_NO = 999
REV_AT_EPOCH   = 8655
BSTAR          = 0
MEAN_MOTION_DOT = -.5E-7
MEAN_MOTION_DDOT = 0

CCSDS_OMM_VERS = 2.0
CREATION_DATE  = 
ORIGINATOR     = 

OBJECT_NAME    = UNKNOWN
OBJECT_ID      = 
CENTER_NAME    = EARTH
REF_FRAME      = TEME
TIME_SYSTEM    = UTC
MEAN_ELEMENT_THEORY = SGP/SGP4

EPOCH          = 2026-03-26T23:45:27.429120
MEAN_MOTION    = 3.11924316
ECCENTRICITY   = .6584629
INCLINATION    = 7.5543
RA_OF_ASC_NODE = 125.0345
ARG_OF_PERICENTER = 203.9091
MEAN_ANOMALY   = 101.2563

EPHEMERIS_TYPE = 0
CLASSIFICATION_TYPE = U
NORAD_CAT_ID   = 84177
ELEMENT_SET_NO = 999
REV_AT_EPOCH   = 13336
BSTAR          = .53429E-2
MEAN_MOTION_DOT = .4124E-4
MEAN_MOTION_DDOT = 0

CCSDS_OMM_VERS = 2.0
CREATION_DATE  = 
ORIGINATOR     = 

OBJECT_NAME    = UNKNOWN
OBJECT_ID      = 
CENTER_NAME    = EARTH
REF_FRAME      = TEME
TIME_SYSTEM    = UTC
MEAN_ELEMENT_THEORY = SGP/SGP4

EPOCH          = 2026-04-03T04:03:24.244704
MEAN_MOTION    = 8.14277954
ECCENTRICITY   = .3459235
INCLINATION    = 64.8839
RA_OF_ASC_NODE = 154.7557
ARG_OF_PERICENTER = 5.4904
MEAN_ANOMALY   = 357.5349

EPHEMERIS_TYPE = 0
CLASSIFICATION_TYPE = U
NORAD_CAT_ID   = 84188
ELEMENT_SET_NO = 999
REV_AT_EPOCH   = 5008
BSTAR          = .18592E+0
MEAN_MOTION_DOT = .382993E-2
MEAN_MOTION_DDOT = 0

CCSDS_OMM_VERS = 2.0
CREATION_DATE  = 
ORIGINATOR     = 

OBJECT_NAME    = UNKNOWN
OBJECT_ID      = 
CENTER_NAME    = EARTH
REF_FRAME      = TEME
TIME_SYSTEM    = UTC
MEAN_ELEMENT_THEORY = SGP/SGP4

EPOCH          = 2026-03-26T22:47:26.752416
MEAN_MOTION    = 2.59776346
ECCENTRICITY   = .6956391
INCLINATION    = 6.1026
RA_OF_ASC_NODE = 57.5144
ARG_OF_PERICENTER = 338.3085
MEAN_ANOMALY   = 2.7316

EPHEMERIS_TYPE = 0
CLASSIFICATION_TYPE = U
NORAD_CAT_ID   = 84192
ELEMENT_SET_NO = 999
REV_AT_EPOCH   = 11256
BSTAR          = .13663E-1
MEAN_MOTION_DOT = .4983E-4
MEAN_MOTION_DDOT = 0

CCSDS_OMM_VERS = 2.0
CREATION_DATE  = 
ORIGINATOR     = 

OBJECT_NAME    = UNKNOWN
OBJECT_ID      = 
CENTER_NAME    = EARTH
REF_FRAME      = TEME
TIME_SYSTEM    = UTC
MEAN_ELEMENT_THEORY = SGP/SGP4

EPOCH          = 2026-04-03T07:08:54.950208
MEAN_MOTION    = 3.24266713
ECCENTRICITY   = .6520435
INCLINATION    = 20.2976
RA_OF_ASC_NODE = 209.2482
ARG_OF_PERICENTER = 181.7353
MEAN_ANOMALY   = 173.8622

EPHEMERIS_TYPE = 0
CLASSIFICATION_TYPE = U
NORAD_CAT_ID   = 84232
ELEMENT_SET_NO = 999
REV_AT_EPOCH   = 10826
BSTAR          = .44164E-1
MEAN_MOTION_DOT = .71865E-3
MEAN_MOTION_DDOT = 0

CCSDS_OMM_VERS = 2.0
CREATION_DATE  = 
ORIGINATOR     = 

OBJECT_NAME    = UNKNOWN
OBJECT_ID      = 
CENTER_NAME    = EARTH
REF_FRAME      = TEME
TIME_SYSTEM    = UTC
MEAN_ELEMENT_THEORY = SGP/SGP4

EPOCH          = 2026-04-02T13:50:49.526304
MEAN_MOTION    = 2.62722267
ECCENTRICITY   = .6890726
INCLINATION    = 9.2167
RA_OF_ASC_NODE = 285.6034
ARG_OF_PERICENTER = 192.2578
MEAN_ANOMALY   = 133.0766

EPHEMERIS_TYPE = 0
CLASSIFICATION_TYPE = U
NORAD_CAT_ID   = 84236
ELEMENT_SET_NO = 999
REV_AT_EPOCH   = 11689
BSTAR          = .79451E-2
MEAN_MOTION_DOT = .1265E-4
MEAN_MOTION_DDOT = 0

